GLOBALSTAR M035 [-]     
1 25851U 99037A   23300.76910843 -.00000023  00000+0  15486-2 0  9996
2 25851  51.9962 309.4760 0013778  91.4212  79.4618 11.04526661 30133
GLOBALSTAR M032 [-]     
1 25852U 99037B   23300.95035621 -.00000057  00000+0  32067-3 0  9992
2 25852  51.9925 175.5473 0007147 238.0864 121.9241 11.19045080 67818
GLOBALSTAR M051 [-]     
1 25853U 99037C   23300.64013831 -.00000087  00000+0 -36853-3 0  9999
2 25853  51.9821  44.7923 0001519 201.7830 158.2916 11.42192856 63995
GLOBALSTAR M030 [-]     
1 25854U 99037D   23300.60539260 -.00000130  00000+0 -11754-2 0  9996
2 25854  51.9871 249.0402 0004943  49.7825 310.3424 11.55089807 80877
GLOBALSTAR M048 [-]     
1 25872U 99041A   23300.97290056 -.00000052  00000+0  47340-3 0  9991
2 25872  51.9378 315.8929 0013114 229.1556 222.2654 11.33840538 57007
GLOBALSTAR M026 [-]     
1 25873U 99041B   23301.36791885 -.00000034  00000+0  11164-2 0  9996
2 25873  52.0013  72.3982 0001271  23.0952 347.7952 11.06829401 82493
GLOBALSTAR M043 [-]     
1 25874U 99041C   23301.06460306 -.00000078  00000+0 -30575-3 0  9992
2 25874  51.9428  39.4778 0013160  14.3393 157.3400 11.25675306 55544
GLOBALSTAR M028 [-]     
1 25875U 99041D   23301.39063254 -.00000063  00000+0  24015-3 0  9995
2 25875  51.9608 175.5257 0062795 212.7876 146.9080 12.50542888115415
